{
  "type": "FeatureCollection",
  "features": [
    {
      "type": "Feature",
      "properties": {
        "norad_id": 31300,
        "name": "FENGYUN 1C DEB",
        "group": "fengyun-1c-debris",
        "lat": 76.02365030370575,
        "lon": 35.87142515070322,
        "alt_km": 807.8998617908319,
        "timestamp": "2025-12-24T05:51:19.890314+00:00",
        "meta_object_name": "FENGYUN 1C DEB",
        "meta_object_id": "1999-025BPJ",
        "meta_epoch": "2025-12-23T04:20:40.394976",
        "meta_mean_motion": 14.15170286,
        "meta_eccentricity": 0.00596474,
        "meta_inclination": 99.5419,
        "meta_ra_of_asc_node": 77.2521,
        "meta_arg_of_pericenter": 30.5415,
        "meta_mean_anomaly": 36.28,
        "meta_ephemeris_type": 0,
        "meta_classification_type": "U",
        "meta_norad_cat_id": 31300,
        "meta_element_set_no": 999,
        "meta_rev_at_epoch": 96322,
        "meta_bstar": 0.0011467381,
        "meta_mean_motion_dot": 2.216e-05,
        "meta_mean_motion_ddot": 0,
        "tle_line1": "1 31300U 99025BPJ 25357.18102309  .00002216  00000+0  11467-2 0  9999",
        "tle_line2": "2 31300  99.5419  77.2521 0059647  30.5415  36.2800 14.15170286963225"
      },
      "geometry": {
        "type": "Point",
        "coordinates": [
          35.87142515070322,
          76.02365030370575
        ]
      }
    },
    {
      "type": "Feature",
      "properties": {
        "norad_id": 31302,
        "name": "FENGYUN 1C DEB",
        "group": "fengyun-1c-debris",
        "lat": 69.7001015731892,
        "lon": 14.516413818811566,
        "alt_km": 780.669772895315,
        "timestamp": "2025-12-24T05:51:19.890324+00:00",
        "meta_object_name": "FENGYUN 1C DEB",
        "meta_object_id": "1999-025BPL",
        "meta_epoch": "2025-12-19T15:12:58.171104",
        "meta_mean_motion": 14.27574345,
        "meta_eccentricity": 0.002659,
        "meta_inclination": 99.4129,
        "meta_ra_of_asc_node": 36.2,
        "meta_arg_of_pericenter": 35.1141,
        "meta_mean_anomaly": 117.7071,
        "meta_ephemeris_type": 0,
        "meta_classification_type": "U",
        "meta_norad_cat_id": 31302,
        "meta_element_set_no": 999,
        "meta_rev_at_epoch": 96456,
        "meta_bstar": 0.00096178,
        "meta_mean_motion_dot": 2.325e-05,
        "meta_mean_motion_ddot": 0,
        "tle_line1": "1 31302U 99025BPL 25353.63400661  .00002325  00000+0  96178-3 0  9993",
        "tle_line2": "2 31302  99.4129  36.2000 0026590  35.1141 117.7071 14.27574345964569"
      },
      "geometry": {
        "type": "Point",
        "coordinates": [
          14.516413818811566,
          69.7001015731892
        ]
      }
    },
    {
      "type": "Feature",
      "properties": {
        "norad_id": 31303,
        "name": "FENGYUN 1C DEB",
        "group": "fengyun-1c-debris",
        "lat": -16.177435831575945,
        "lon": -168.45647202966097,
        "alt_km": 858.339802049697,
        "timestamp": "2025-12-24T05:51:19.890336+00:00",
        "meta_object_name": "FENGYUN 1C DEB",
        "meta_object_id": "1999-025BPM",
        "meta_epoch": "2025-12-23T11:54:40.017600",
        "meta_mean_motion": 14.11029297,
        "meta_eccentricity": 0.00119942,
        "meta_inclination": 98.7039,
        "meta_ra_of_asc_node": 13.3661,
        "meta_arg_of_pericenter": 123.4196,
        "meta_mean_anomaly": 236.8125,
        "meta_ephemeris_type": 0,
        "meta_classification_type": "U",
        "meta_norad_cat_id": 31303,
        "meta_element_set_no": 999,
        "meta_rev_at_epoch": 96470,
        "meta_bstar": 0.00010147774,
        "meta_mean_motion_dot": 1.4e-06,
        "meta_mean_motion_ddot": 0,
        "tle_line1": "1 31303U 99025BPM 25357.49629650  .00000140  00000+0  10148-3 0  9999",
        "tle_line2": "2 31303  98.7039  13.3661 0011994 123.4196 236.8125 14.11029297964707"
      },
      "geometry": {
        "type": "Point",
        "coordinates": [
          -168.45647202966097,
          -16.177435831575945
        ]
      }
    },
    {
      "type": "Feature",
      "properties": {
        "norad_id": 31311,
        "name": "FENGYUN 1C DEB",
        "group": "fengyun-1c-debris",
        "lat": -48.03094842800759,
        "lon": 89.75709798087561,
        "alt_km": 801.5228506541998,
        "timestamp": "2025-12-24T05:51:19.890347+00:00",
        "meta_object_name": "FENGYUN 1C DEB",
        "meta_object_id": "1999-025BPP",
        "meta_epoch": "2025-12-23T05:08:41.187840",
        "meta_mean_motion": 14.29829192,
        "meta_eccentricity": 0.00176877,
        "meta_inclination": 98.8519,
        "meta_ra_of_asc_node": 78.7333,
        "meta_arg_of_pericenter": 55.5558,
        "meta_mean_anomaly": 359.0826,
        "meta_ephemeris_type": 0,
        "meta_classification_type": "U",
        "meta_norad_cat_id": 31311,
        "meta_element_set_no": 999,
        "meta_rev_at_epoch": 96371,
        "meta_bstar": 0.0017134578,
        "meta_mean_motion_dot": 4.369e-05,
        "meta_mean_motion_ddot": 0,
        "tle_line1": "1 31311U 99025BPP 25357.21436560  .00004369  00000+0  17135-2 0  9993",
        "tle_line2": "2 31311  98.8519  78.7333 0017687  55.5558 359.0826 14.29829192963710"
      },
      "geometry": {
        "type": "Point",
        "coordinates": [
          89.75709798087561,
          -48.03094842800759
        ]
      }
    },
    {
      "type": "Feature",
      "properties": {
        "norad_id": 31312,
        "name": "FENGYUN 1C DEB",
        "group": "fengyun-1c-debris",
        "lat": 1.623565650247264,
        "lon": -16.685481091055678,
        "alt_km": 932.1395363706542,
        "timestamp": "2025-12-24T05:51:19.890357+00:00",
        "meta_object_name": "FENGYUN 1C DEB",
        "meta_object_id": "1999-025BPQ",
        "meta_epoch": "2025-12-15T05:56:52.525824",
        "meta_mean_motion": 14.00925702,
        "meta_eccentricity": 0.00580012,
        "meta_inclination": 98.8604,
        "meta_ra_of_asc_node": 334.8421,
        "meta_arg_of_pericenter": 229.1743,
        "meta_mean_anomaly": 146.4845,
        "meta_ephemeris_type": 0,
        "meta_classification_type": "U",
        "meta_norad_cat_id": 31312,
        "meta_element_set_no": 999,
        "meta_rev_at_epoch": 95181,
        "meta_bstar": 0.00060391584,
        "meta_mean_motion_dot": 8.73e-06,
        "meta_mean_motion_ddot": 0,
        "tle_line1": "1 31312U 99025BPQ 25349.24783016  .00000873  00000+0  60392-3 0  9999",
        "tle_line2": "2 31312  98.8604 334.8421 0058001 229.1743 146.4845 14.00925702951810"
      },
      "geometry": {
        "type": "Point",
        "coordinates": [
          -16.685481091055678,
          1.623565650247264
        ]
      }
    },
    {
      "type": "Feature",
      "properties": {
        "norad_id": 31313,
        "name": "FENGYUN 1C DEB",
        "group": "fengyun-1c-debris",
        "lat": -29.997237432159,
        "lon": 77.12729746899252,
        "alt_km": 808.234501282539,
        "timestamp": "2025-12-24T05:51:19.890369+00:00",
        "meta_object_name": "FENGYUN 1C DEB",
        "meta_object_id": "1999-025BPR",
        "meta_epoch": "2025-12-23T11:59:22.013376",
        "meta_mean_motion": 14.22287318,
        "meta_eccentricity": 0.00451533,
        "meta_inclination": 99.0155,
        "meta_ra_of_asc_node": 261.625,
        "meta_arg_of_pericenter": 150.246,
        "meta_mean_anomaly": 210.1299,
        "meta_ephemeris_type": 0,
        "meta_classification_type": "U",
        "meta_norad_cat_id": 31313,
        "meta_element_set_no": 999,
        "meta_rev_at_epoch": 97215,
        "meta_bstar": 0.00026650765,
        "meta_mean_motion_dot": 5.52e-06,
        "meta_mean_motion_ddot": 0,
        "tle_line1": "1 31313U 99025BPR 25357.49956034  .00000552  00000+0  26651-3 0  9992",
        "tle_line2": "2 31313  99.0155 261.6250 0045153 150.2460 210.1299 14.22287318972156"
      },
      "geometry": {
        "type": "Point",
        "coordinates": [
          77.12729746899252,
          -29.997237432159
        ]
      }
    },
    {
      "type": "Feature",
      "properties": {
        "norad_id": 31314,
        "name": "FENGYUN 1C DEB",
        "group": "fengyun-1c-debris",
        "lat": -77.0174993103431,
        "lon": 129.5873403760483,
        "alt_km": 859.433216283086,
        "timestamp": "2025-12-24T05:51:19.890379+00:00",
        "meta_object_name": "FENGYUN 1C DEB",
        "meta_object_id": "1999-025BPS",
        "meta_epoch": "2025-12-23T18:21:29.542464",
        "meta_mean_motion": 14.04935458,
        "meta_eccentricity": 0.00782515,
        "meta_inclination": 98.8224,
        "meta_ra_of_asc_node": 351.4704,
        "meta_arg_of_pericenter": 326.4651,
        "meta_mean_anomaly": 33.1576,
        "meta_ephemeris_type": 0,
        "meta_classification_type": "U",
        "meta_norad_cat_id": 31314,
        "meta_element_set_no": 999,
        "meta_rev_at_epoch": 60969,
        "meta_bstar": 0.00036988335,
        "meta_mean_motion_dot": 5.68e-06,
        "meta_mean_motion_ddot": 0,
        "tle_line1": "1 31314U 99025BPS 25357.76492526  .00000568  00000+0  36988-3 0  9995",
        "tle_line2": "2 31314  98.8224 351.4704 0078251 326.4651  33.1576 14.04935458609699"
      },
      "geometry": {
        "type": "Point",
        "coordinates": [
          129.5873403760483,
          -77.0174993103431
        ]
      }
    }
  ]
}